ONEWEB-0158             
1 48054U 21025N   25046.58307460 -.00000267  00000+0 -76514-3 0  9993
2 48054  87.8882  56.9434 0001695  89.3547 270.7777 13.13468391189758
ONEWEB-0157             
1 48055U 21025P   25046.53070812 -.00000055  00000+0 -18516-3 0  9990
2 48055  87.8884  56.9661 0002113  78.1581 281.9785 13.13469473189680
ONEWEB-0162             
1 48056U 21025Q   25046.57038792  .00000020  00000+0  19271-4 0  9996
2 48056  87.8878  56.9508 0001812  88.7400 271.3937 13.13467556189666
ONEWEB-0155             
1 48057U 21025R   25046.43866041 -.00000282  00000+0 -80710-3 0  9995
2 48057  87.8876  56.9909 0002050  89.3505 270.7859 13.13468570189784
ONEWEB-0149             
1 48058U 21025S   25046.53546666  .00000100  00000+0  23762-3 0  9996
2 48058  87.8880  56.9667 0001622  86.4866 273.6448 13.13471535189605
ONEWEB-0148             
1 48059U 21025T   25046.57672339 -.00000140  00000+0 -41923-3 0  9993
2 48059  87.8884  56.9780 0001478  69.0359 291.0928 13.13467130189736
ONEWEB-0160             
1 48060U 21025U   25046.59258902 -.00000244  00000+0 -70382-3 0  9999
2 48060  87.8882  56.9708 0001910 116.9381 243.1944 13.13467642189682
ONEWEB-0163             
1 48061U 21025V   25046.57831842 -.00000195  00000+0 -56793-3 0  9993
2 48061  87.8881  56.9595 0001994  81.5207 278.6148 13.13467831189805
